start=new Date('2023-06-11T00:00:00.000Z').valueOf();
sats=[{"MEAN_MOTION_DDOT":"0.0000000000000","BSTAR":"-0.00458160000000","RCS_SIZE":null,"MEAN_MOTION":"15.82709298","PERIAPSIS":"320.324","OBJECT_NAME":"STARLINK-5931","OBJECT_ID":"2023-078U","CLASSIFICATION_TYPE":"U","EPOCH":"2023-06-10T22:00:00.999936","INCLINATION":"70.0042","TLE_LINE2":"2 56785  70.0042  23.5580 0003672 271.6907 144.4972 15.82709298  1305","ELEMENT_SET_NO":"999","SEMIMAJOR_AXIS":"6700.920","COUNTRY_CODE":"US","MEAN_MOTION_DOT":"-0.00875751","APOAPSIS":"325.245","RA_OF_ASC_NODE":"23.5580","TLE_LINE1":"1 56785U 23078U   23161.91667824 -.00875751  00000-0 -45816-2 0  9998","ECCENTRICITY":"0.00036720","PERIOD":"90.983","SITE":"AFWTR","FILE":"3929969","OBJECT_TYPE":"PAYLOAD","LAUNCH_DATE":"2023-05-31","MEAN_ELEMENT_THEORY":"SGP4","EPHEMERIS_TYPE":"0","MEAN_ANOMALY":"144.4972","ARG_OF_PERICENTER":"271.6907","REV_AT_EPOCH":"130","TIME_SYSTEM":"UTC","DECAY_DATE":null,"CENTER_NAME":"EARTH","GP_ID":"233658077","REF_FRAME":"TEME","NORAD_CAT_ID":"56785"},{"EPHEMERIS_TYPE":"0","ARG_OF_PERICENTER":"271.3699","MEAN_ANOMALY":"141.9617","ECCENTRICITY":"0.00036370","PERIOD":"90.988","OBJECT_TYPE":"PAYLOAD","MEAN_ELEMENT_THEORY":"SGP4","LAUNCH_DATE":"2023-05-31","SITE":"AFWTR","FILE":"3929969","REF_FRAME":"TEME","NORAD_CAT_ID":"56786","REV_AT_EPOCH":"130","TIME_SYSTEM":"UTC","GP_ID":"233658013","CENTER_NAME":"EARTH","DECAY_DATE":null,"OBJECT_ID":"2023-078V","EPOCH":"2023-06-10T22:00:00.999936","TLE_LINE2":"2 56786  70.0053  23.5623 0003637 271.3699 141.9617 15.82627256  1303","INCLINATION":"70.0053","CLASSIFICATION_TYPE":"U","BSTAR":"-0.00459480000000","MEAN_MOTION_DDOT":"0.0000000000000","MEAN_MOTION":"15.82627256","PERIAPSIS":"320.579","OBJECT_NAME":"STARLINK-6341","RCS_SIZE":null,"RA_OF_ASC_NODE":"23.5623","TLE_LINE1":"1 56786U 23078V   23161.91667824 -.00874946  00000-0 -45948-2 0  9990","SEMIMAJOR_AXIS":"6701.151","ELEMENT_SET_NO":"999","APOAPSIS":"325.453","COUNTRY_CODE":"US","MEAN_MOTION_DOT":"-0.00874946"},{"DECAY_DATE":null,"CENTER_NAME":"EARTH","GP_ID":"233657880","TIME_SYSTEM":"UTC","REV_AT_EPOCH":"130","NORAD_CAT_ID":"56787","REF_FRAME":"TEME","FILE":"3929969","SITE":"AFWTR","MEAN_ELEMENT_THEORY":"SGP4","LAUNCH_DATE":"2023-05-31","OBJECT_TYPE":"PAYLOAD","PERIOD":"90.985","ECCENTRICITY":"0.00036940","MEAN_ANOMALY":"142.7784","ARG_OF_PERICENTER":"272.3152","EPHEMERIS_TYPE":"0","COUNTRY_CODE":"US","MEAN_MOTION_DOT":"-0.00877801","APOAPSIS":"325.340","ELEMENT_SET_NO":"999","SEMIMAJOR_AXIS":"6701.000","TLE_LINE1":"1 56787U 23078W   23161.91667824 -.00877801  00000-0 -45995-2 0  9996","RA_OF_ASC_NODE":"23.5589","RCS_SIZE":null,"OBJECT_NAME":"STARLINK-6326","PERIAPSIS":"320.389","MEAN_MOTION":"15.82680891","MEAN_MOTION_DDOT":"0.0000000000000","BSTAR":"-0.00459950000000","CLASSIFICATION_TYPE":"U","TLE_LINE2":"2 56787  70.0037  23.5589 0003694 272.3152 142.7784 15.82680891  1303","INCLINATION":"70.0037","EPOCH":"2023-06-10T22:00:00.999936","OBJECT_ID":"2023-078W"},{"APOAPSIS":"325.396","MEAN_MOTION_DOT":"-0.00880373","COUNTRY_CODE":"US","SEMIMAJOR_AXIS":"6701.052","ELEMENT_SET_NO":"999","TLE_LINE1":"1 56788U 23078X   23161.91667824 -.00880373  00000-0 -46184-2 0  9996","RA_OF_ASC_NODE":"23.5607","OBJECT_NAME":"STARLINK-6336","PERIAPSIS":"320.439","MEAN_MOTION":"15.82662244","RCS_SIZE":null,"BSTAR":"-0.00461840000000","MEAN_MOTION_DDOT":"0.0000000000000","TLE_LINE2":"2 56788  70.0047  23.5607 0003699 273.0021 141.3829 15.82662244  1301","INCLINATION":"70.0047","EPOCH":"2023-06-10T22:00:00.999936","CLASSIFICATION_TYPE":"U","OBJECT_ID":"2023-078X","GP_ID":"233657949","CENTER_NAME":"EARTH","DECAY_DATE":null,"TIME_SYSTEM":"UTC","REV_AT_EPOCH":"130","NORAD_CAT_ID":"56788","REF_FRAME":"TEME","LAUNCH_DATE":"2023-05-31","MEAN_ELEMENT_THEORY":"SGP4","OBJECT_TYPE":"PAYLOAD","FILE":"3929969","SITE":"AFWTR","PERIOD":"90.986","ECCENTRICITY":"0.00036990","ARG_OF_PERICENTER":"273.0021","MEAN_ANOMALY":"141.3829","EPHEMERIS_TYPE":"0"},{"OBJECT_NAME":"STARLINK-6325","MEAN_MOTION":"15.82780978","PERIAPSIS":"320.120","RCS_SIZE":null,"BSTAR":"-0.00457180000000","MEAN_MOTION_DDOT":"0.0000000000000","INCLINATION":"70.0043","TLE_LINE2":"2 56789  70.0043  23.5548 0003674 272.3432 146.3280 15.82780978  1304","EPOCH":"2023-06-10T22:00:00.999936","CLASSIFICATION_TYPE":"U","OBJECT_ID":"2023-078Y","APOAPSIS":"325.044","COUNTRY_CODE":"US","MEAN_MOTION_DOT":"-0.00876739","SEMIMAJOR_AXIS":"6700.717","ELEMENT_SET_NO":"999","TLE_LINE1":"1 56789U 23078Y   23161.91667824 -.00876739  00000-0 -45718-2 0  9990","RA_OF_ASC_NODE":"23.5548","MEAN_ELEMENT_THEORY":"SGP4","LAUNCH_DATE":"2023-05-31","OBJECT_TYPE":"PAYLOAD","FILE":"3929969","SITE":"AFWTR","PERIOD":"90.979","ECCENTRICITY":"0.00036740","ARG_OF_PERICENTER":"272.3432","MEAN_ANOMALY":"146.3280","EPHEMERIS_TYPE":"0","CENTER_NAME":"EARTH","GP_ID":"233657821","DECAY_DATE":null,"TIME_SYSTEM":"UTC","REV_AT_EPOCH":"130","NORAD_CAT_ID":"56789","REF_FRAME":"TEME"},{"DECAY_DATE":null,"GP_ID":"233657757","CENTER_NAME":"EARTH","TIME_SYSTEM":"UTC","REV_AT_EPOCH":"130","NORAD_CAT_ID":"56790","REF_FRAME":"TEME","FILE":"3929969","SITE":"AFWTR","MEAN_ELEMENT_THEORY":"SGP4","LAUNCH_DATE":"2023-05-31","OBJECT_TYPE":"PAYLOAD","PERIOD":"90.985","ECCENTRICITY":"0.00037100","MEAN_ANOMALY":"142.6072","ARG_OF_PERICENTER":"272.1354","EPHEMERIS_TYPE":"0","COUNTRY_CODE":"US","MEAN_MOTION_DOT":"-0.00878138","APOAPSIS":"325.378","ELEMENT_SET_NO":"999","SEMIMAJOR_AXIS":"6701.027","TLE_LINE1":"1 56790U 23078Z   23161.91667824 -.00878138  00000-0 -46035-2 0  9990","RA_OF_ASC_NODE":"23.5601","RCS_SIZE":null,"OBJECT_NAME":"STARLINK-6345","PERIAPSIS":"320.406","MEAN_MOTION":"15.82671236","MEAN_MOTION_DDOT":"0.0000000000000","BSTAR":"-0.00460350000000","CLASSIFICATION_TYPE":"U","INCLINATION":"70.0043","TLE_LINE2":"2 56790  70.0043  23.5601 0003710 272.1354 142.6072 15.82671236  1302","EPOCH":"2023-06-10T22:00:00.999936","OBJECT_ID":"2023-078Z"},{"MEAN_MOTION_DOT":"-0.00877733","COUNTRY_CODE":"US","APOAPSIS":"325.143","ELEMENT_SET_NO":"999","SEMIMAJOR_AXIS":"6700.799","TLE_LINE1":"1 56791U 23078AA  23161.91667824 -.00877733  00000-0 -45837-2 0  9990","RA_OF_ASC_NODE":"23.5558","RCS_SIZE":null,"OBJECT_NAME":"STARLINK-5977","MEAN_MOTION":"15.82751971","PERIAPSIS":"320.185","MEAN_MOTION_DDOT":"0.0000000000000","BSTAR":"-0.00458370000000","CLASSIFICATION_TYPE":"U","INCLINATION":"70.0031","TLE_LINE2":"2 56791  70.0031  23.5558 0003700 272.1818 145.4060 15.82751971  1308","EPOCH":"2023-06-10T22:00:00.999936","OBJECT_ID":"2023-078AA","DECAY_DATE":null,"CENTER_NAME":"EARTH","GP_ID":"233658136","TIME_SYSTEM":"UTC","REV_AT_EPOCH":"130","NORAD_CAT_ID":"56791","REF_FRAME":"TEME","FILE":"3929969","SITE":"AFWTR","LAUNCH_DATE":"2023-05-31","MEAN_ELEMENT_THEORY":"SGP4","OBJECT_TYPE":"PAYLOAD","PERIOD":"90.981","ECCENTRICITY":"0.00037000","MEAN_ANOMALY":"145.4060","ARG_OF_PERICENTER":"272.1818","EPHEMERIS_TYPE":"0"},{"CLASSIFICATION_TYPE":"U","EPOCH":"2023-06-10T22:00:00.999936","TLE_LINE2":"2 56792  70.0029  23.5584 0003649 269.7897 146.0104 15.82700009  1308","INCLINATION":"70.0029","OBJECT_ID":"2023-078AB","RCS_SIZE":null,"PERIAPSIS":"320.366","MEAN_MOTION":"15.82700009","OBJECT_NAME":"STARLINK-6046","MEAN_MOTION_DDOT":"0.0000000000000","BSTAR":"-0.00458350000000","RA_OF_ASC_NODE":"23.5584","TLE_LINE1":"1 56792U 23078AB  23161.91667824 -.00875722  00000-0 -45835-2 0  9995","COUNTRY_CODE":"US","MEAN_MOTION_DOT":"-0.00875722","APOAPSIS":"325.256","ELEMENT_SET_NO":"999","SEMIMAJOR_AXIS":"6700.946","MEAN_ANOMALY":"146.0104","ARG_OF_PERICENTER":"269.7897","EPHEMERIS_TYPE":"0","SITE":"AFWTR","FILE":"3929969","OBJECT_TYPE":"PAYLOAD","MEAN_ELEMENT_THEORY":"SGP4","LAUNCH_DATE":"2023-05-31","ECCENTRICITY":"0.00036490","PERIOD":"90.984","REF_FRAME":"TEME","NORAD_CAT_ID":"56792","DECAY_DATE":null,"GP_ID":"233657693","CENTER_NAME":"EARTH","REV_AT_EPOCH":"130","TIME_SYSTEM":"UTC"},{"SEMIMAJOR_AXIS":"6700.577","ELEMENT_SET_NO":"999","APOAPSIS":"324.895","MEAN_MOTION_DOT":"-0.00875058","COUNTRY_CODE":"US","RA_OF_ASC_NODE":"23.5523","TLE_LINE1":"1 56793U 23078AC  23161.91667824 -.00875058  00000-0 -45515-2 0  9993","BSTAR":"-0.00455150000000","MEAN_MOTION_DDOT":"0.0000000000000","MEAN_MOTION":"15.82830638","PERIAPSIS":"319.989","OBJECT_NAME":"STARLINK-6052","RCS_SIZE":null,"OBJECT_ID":"2023-078AC","EPOCH":"2023-06-10T22:00:00.999936","INCLINATION":"70.0037","TLE_LINE2":"2 56793  70.0037  23.5523 0003661 271.4466 149.0004 15.82830638  1301","CLASSIFICATION_TYPE":"U","REV_AT_EPOCH":"130","TIME_SYSTEM":"UTC","GP_ID":"233658078","CENTER_NAME":"EARTH","DECAY_DATE":null,"REF_FRAME":"TEME","NORAD_CAT_ID":"56793","ECCENTRICITY":"0.00036610","PERIOD":"90.976","OBJECT_TYPE":"PAYLOAD","MEAN_ELEMENT_THEORY":"SGP4","LAUNCH_DATE":"2023-05-31","SITE":"AFWTR","FILE":"3929969","EPHEMERIS_TYPE":"0","ARG_OF_PERICENTER":"271.4466","MEAN_ANOMALY":"149.0004"},{"TLE_LINE1":"1 56794U 23078AD  23161.91667824 -.00877369  00000-0 -45840-2 0  9992","RA_OF_ASC_NODE":"23.5573","COUNTRY_CODE":"US","MEAN_MOTION_DOT":"-0.00877369","APOAPSIS":"325.155","ELEMENT_SET_NO":"999","SEMIMAJOR_AXIS":"6700.829","CLASSIFICATION_TYPE":"U","INCLINATION":"70.0049","TLE_LINE2":"2 56794  70.0049  23.5573 0003673 269.4818 147.7605 15.82741288  1305","EPOCH":"2023-06-10T22:00:00.999936","OBJECT_ID":"2023-078AD","RCS_SIZE":null,"OBJECT_NAME":"STARLINK-6060","MEAN_MOTION":"15.82741288","PERIAPSIS":"320.233","MEAN_MOTION_DDOT":"0.0000000000000","BSTAR":"-0.00458400000000","NORAD_CAT_ID":"56794","REF_FRAME":"TEME","DECAY_DATE":null,"GP_ID":"233658014","CENTER_NAME":"EARTH","TIME_SYSTEM":"UTC","REV_AT_EPOCH":"130","MEAN_ANOMALY":"147.7605","ARG_OF_PERICENTER":"269.4818","EPHEMERIS_TYPE":"0","FILE":"3929969","SITE":"AFWTR","MEAN_ELEMENT_THEORY":"SGP4","LAUNCH_DATE":"2023-05-31","OBJECT_TYPE":"PAYLOAD","PERIOD":"90.981","ECCENTRICITY":"0.00036730"}];
